2025-155V               
1 64895U 25155V   26068.85787115  .00013705  00000+0  51002-3 0  9990
2 64895  97.4485  37.2490 0008035 152.8264 207.3397 15.27583301 65579
STARLINK-35812          
1 66574U 25268T   26068.14199134  .00029196  00000+0  10661-2 0  9997
2 66574  42.9983 350.3598 0001275 269.6091  90.4615 15.27584612 17875
